[{"OBJECT_NAME":"STARLINK-3136","OBJECT_ID":"2021-104AM","EPOCH":"2026-03-09T14:23:32.648352","MEAN_MOTION":15.08849863,"ECCENTRICITY":7.82e-5,"INCLINATION":53.2167,"RA_OF_ASC_NODE":209.5242,"ARG_OF_PERICENTER":104.6169,"MEAN_ANOMALY":255.491,"EPHEMERIS_TYPE":0,"CLASSIFICATION_TYPE":"U","NORAD_CAT_ID":49443,"ELEMENT_SET_NO":999,"REV_AT_EPOCH":23890,"BSTAR":-0.00026245,"MEAN_MOTION_DOT":-4.463e-5,"MEAN_MOTION_DDOT":0},{"OBJECT_NAME":"OBJECT A","OBJECT_ID":"2025-197A","EPOCH":"2026-03-09T23:57:28.367136","MEAN_MOTION":15.09670549,"ECCENTRICITY":0.0013887,"INCLINATION":97.4116,"RA_OF_ASC_NODE":254.3664,"ARG_OF_PERICENTER":14.3167,"MEAN_ANOMALY":345.8453,"EPHEMERIS_TYPE":0,"CLASSIFICATION_TYPE":"U","NORAD_CAT_ID":65488,"ELEMENT_SET_NO":999,"REV_AT_EPOCH":2804,"BSTAR":0.00030852597,"MEAN_MOTION_DOT":4.917e-5,"MEAN_MOTION_DDOT":0}]
